ATLAS CENTAUR 2         
1 00694U 63047A   26112.94113654  .00002590  00000+0  30660-3 0  9997
2 00694  30.3529 308.3070 0546658 110.3508 255.6666 14.12276713137883
THOR AGENA D R/B        
1 00733U 64002A   26113.03733367  .00000126  00000+0  62018-4 0  9999
2 00733  99.1192 128.7882 0033766 128.3757 232.0467 14.34041718244658
SL-3 R/B                
1 00877U 64053B   26113.51577912  .00000082  00000+0  40250-4 0  9994
2 00877  65.0772 199.8104 0081093 278.1604  81.0303 14.61397639273345
SL-8 R/B                
1 02802U 67045B   26113.48670359  .00000192  00000+0  60905-4 0  9994
2 02802  74.0101 264.4207 0065172 261.1388  98.2387 14.45653056 95495
SL-8 R/B                
1 03230U 68040B   26113.36056790  .00001947  00000+0  14490-3 0  9996
2 03230  74.0310 222.3900 0023948  28.0283 332.2189 15.03543156 96727
OAO 2                   
1 03597U 68110A   26113.00372773  .00000152  00000+0  46148-4 0  9996
2 03597  34.9947  17.7981 0005849 199.4910 160.5558 14.47330084 25522
ISIS 1                  
1 03669U 69009A   26113.05691681  .00000062  00000+0  38085-4 0  9992
2 03669  88.4452 150.4577 1707140 359.6414   0.3297 11.30423768353544
SERT 2                  
1 04327U 70009A   26113.56669509  .00000011  00000+0  71716-4 0  9998
2 04327  99.2814  54.2192 0005711  56.1380 120.2671 13.58735158785983
SL-3 R/B                
1 05118U 71028B   26113.53036395  .00033208  00000+0  33562-3 0  9997
2 05118  81.2364 356.4876 0016535 118.4188 241.8736 15.64970029995671
ASTEX 1                 
1 05560U 71089A   26113.10257489  .00000310  00000+0  78853-4 0  9998
2 05560  92.7052 166.1047 0013391 298.5595  61.4262 14.50810336868743
SL-8 R/B                
1 05730U 71119B   26113.52099164  .00008045  00000+0  41846-3 0  9995
2 05730  73.8848  91.8651 0545475  49.0169 315.6858 14.38610888661932
OAO 3 (COPERNICUS)      
1 06153U 72065A   26113.54884485  .00000211  00000+0  47565-4 0  9998
2 06153  35.0066  41.7235 0006604 173.7836 352.7242 14.60029533852755
ATLAS CENTAUR R/B       
1 06155U 72065B   26113.48809833  .00000868  00000+0  12124-3 0  9997
2 06155  35.0024  43.1878 0033116  26.2507 333.9864 14.77802690847896
SL-8 R/B                
1 08459U 75112B   26112.88149348  .00000063  00000+0  29380-4 0  9993
2 08459  74.0595 297.6186 0015324  14.3869 345.7718 14.38224359638220
SL-3 R/B                
1 10114U 77057B   26113.50498708  .00009967  00000+0  20130-3 0  9996
2 10114  97.5825 287.4554 0008341 118.5928 241.6161 15.46677366675257
SEASAT 1                
1 10967U 78064A   26113.52663164  .00000189  00000+0  91308-4 0  9996
2 10967 108.0082 219.5733 0002789 261.7652  98.3178 14.46197240512999
SL-14 R/B               
1 11267U 79011B   26113.24814017  .00000416  00000+0  38516-4 0  9992
2 11267  82.5250  54.2812 0014363 268.8207  91.1367 14.91963594535420
