[{"OBJECT_NAME":"ATLAS CENTAUR 2","OBJECT_ID":"1963-047A","EPOCH":"2026-04-22T22:35:14.197056","MEAN_MOTION":14.12276713,"ECCENTRICITY":0.05466582,"INCLINATION":30.3529,"RA_OF_ASC_NODE":308.307,"ARG_OF_PERICENTER":110.3508,"MEAN_ANOMALY":255.6666,"EPHEMERIS_TYPE":0,"CLASSIFICATION_TYPE":"U","NORAD_CAT_ID":694,"ELEMENT_SET_NO":999,"REV_AT_EPOCH":13788,"BSTAR":0.00030659729,"MEAN_MOTION_DOT":2.59e-5,"MEAN_MOTION_DDOT":0},{"OBJECT_NAME":"THOR AGENA D R/B","OBJECT_ID":"1964-002A","EPOCH":"2026-04-23T00:53:45.629088","MEAN_MOTION":14.34041718,"ECCENTRICITY":0.00337666,"INCLINATION":99.1192,"RA_OF_ASC_NODE":128.7882,"ARG_OF_PERICENTER":128.3757,"MEAN_ANOMALY":232.0467,"EPHEMERIS_TYPE":0,"CLASSIFICATION_TYPE":"U","NORAD_CAT_ID":733,"ELEMENT_SET_NO":999,"REV_AT_EPOCH":24465,"BSTAR":6.2017717e-5,"MEAN_MOTION_DOT":1.26e-6,"MEAN_MOTION_DDOT":0},{"OBJECT_NAME":"SL-3 R/B","OBJECT_ID":"1964-053B","EPOCH":"2026-04-23T12:22:43.315968","MEAN_MOTION":14.61397639,"ECCENTRICITY":0.00810935,"INCLINATION":65.0772,"RA_OF_ASC_NODE":199.8104,"ARG_OF_PERICENTER":278.1604,"MEAN_ANOMALY":81.0303,"EPHEMERIS_TYPE":0,"CLASSIFICATION_TYPE":"U","NORAD_CAT_ID":877,"ELEMENT_SET_NO":999,"REV_AT_EPOCH":27334,"BSTAR":4.0250064e-5,"MEAN_MOTION_DOT":8.2e-7,"MEAN_MOTION_DDOT":0},{"OBJECT_NAME":"SL-8 R/B","OBJECT_ID":"1967-045B","EPOCH":"2026-04-23T11:40:51.190176","MEAN_MOTION":14.45653056,"ECCENTRICITY":0.00651726,"INCLINATION":74.0101,"RA_OF_ASC_NODE":264.4207,"ARG_OF_PERICENTER":261.1388,"MEAN_ANOMALY":98.2387,"EPHEMERIS_TYPE":0,"CLASSIFICATION_TYPE":"U","NORAD_CAT_ID":2802,"ELEMENT_SET_NO":999,"REV_AT_EPOCH":9549,"BSTAR":6.0904949e-5,"MEAN_MOTION_DOT":1.92e-6,"MEAN_MOTION_DDOT":0},{"OBJECT_NAME":"SL-8 R/B","OBJECT_ID":"1968-040B","EPOCH":"2026-04-23T08:39:13.066560","MEAN_MOTION":15.03543156,"ECCENTRICITY":0.00239487,"INCLINATION":74.031,"RA_OF_ASC_NODE":222.39,"ARG_OF_PERICENTER":28.0283,"MEAN_ANOMALY":332.2189,"EPHEMERIS_TYPE":0,"CLASSIFICATION_TYPE":"U","NORAD_CAT_ID":3230,"ELEMENT_SET_NO":999,"REV_AT_EPOCH":9672,"BSTAR":0.00014490306,"MEAN_MOTION_DOT":1.947e-5,"MEAN_MOTION_DDOT":0},{"OBJECT_NAME":"OAO 2","OBJECT_ID":"1968-110A","EPOCH":"2026-04-23T00:05:22.075872","MEAN_MOTION":14.47330084,"ECCENTRICITY":0.00058494,"INCLINATION":34.9947,"RA_OF_ASC_NODE":17.7981,"ARG_OF_PERICENTER":199.491,"MEAN_ANOMALY":160.5558,"EPHEMERIS_TYPE":0,"CLASSIFICATION_TYPE":"U","NORAD_CAT_ID":3597,"ELEMENT_SET_NO":999,"REV_AT_EPOCH":2552,"BSTAR":4.6147535e-5,"MEAN_MOTION_DOT":1.52e-6,"MEAN_MOTION_DDOT":0},{"OBJECT_NAME":"ISIS 1","OBJECT_ID":"1969-009A","EPOCH":"2026-04-23T01:21:57.612384","MEAN_MOTION":11.30423768,"ECCENTRICITY":0.17071408,"INCLINATION":88.4452,"RA_OF_ASC_NODE":150.4577,"ARG_OF_PERICENTER":359.6414,"MEAN_ANOMALY":0.3297,"EPHEMERIS_TYPE":0,"CLASSIFICATION_TYPE":"U","NORAD_CAT_ID":3669,"ELEMENT_SET_NO":999,"REV_AT_EPOCH":35354,"BSTAR":3.8085027e-5,"MEAN_MOTION_DOT":6.2e-7,"MEAN_MOTION_DDOT":0},{"OBJECT_NAME":"SERT 2","OBJECT_ID":"1970-009A","EPOCH":"2026-04-23T13:36:02.455776","MEAN_MOTION":13.58735158,"ECCENTRICITY":0.00057115,"INCLINATION":99.2814,"RA_OF_ASC_NODE":54.2192,"ARG_OF_PERICENTER":56.138,"MEAN_ANOMALY":120.2671,"EPHEMERIS_TYPE":0,"CLASSIFICATION_TYPE":"U","NORAD_CAT_ID":4327,"ELEMENT_SET_NO":999,"REV_AT_EPOCH":78598,"BSTAR":7.1716141e-5,"MEAN_MOTION_DOT":1.1e-7,"MEAN_MOTION_DDOT":0},{"OBJECT_NAME":"SL-3 R/B","OBJECT_ID":"1971-028B","EPOCH":"2026-04-23T12:43:43.445280","MEAN_MOTION":15.64970029,"ECCENTRICITY":0.00165351,"INCLINATION":81.2364,"RA_OF_ASC_NODE":356.4876,"ARG_OF_PERICENTER":118.4188,"MEAN_ANOMALY":241.8736,"EPHEMERIS_TYPE":0,"CLASSIFICATION_TYPE":"U","NORAD_CAT_ID":5118,"ELEMENT_SET_NO":999,"REV_AT_EPOCH":99567,"BSTAR":0.00033561973,"MEAN_MOTION_DOT":0.00033208,"MEAN_MOTION_DDOT":0},{"OBJECT_NAME":"ASTEX 1","OBJECT_ID":"1971-089A","EPOCH":"2026-04-23T02:27:42.470496","MEAN_MOTION":14.50810336,"ECCENTRICITY":0.00133919,"INCLINATION":92.7052,"RA_OF_ASC_NODE":166.1047,"ARG_OF_PERICENTER":298.5595,"MEAN_ANOMALY":61.4262,"EPHEMERIS_TYPE":0,"CLASSIFICATION_TYPE":"U","NORAD_CAT_ID":5560,"ELEMENT_SET_NO":999,"REV_AT_EPOCH":86874,"BSTAR":7.8853497e-5,"MEAN_MOTION_DOT":3.1e-6,"MEAN_MOTION_DDOT":0},{"OBJECT_NAME":"SL-8 R/B","OBJECT_ID":"1971-119B","EPOCH":"2026-04-23T12:30:13.677696","MEAN_MOTION":14.38610888,"ECCENTRICITY":0.05454752,"INCLINATION":73.8848,"RA_OF_ASC_NODE":91.8651,"ARG_OF_PERICENTER":49.0169,"MEAN_ANOMALY":315.6858,"EPHEMERIS_TYPE":0,"CLASSIFICATION_TYPE":"U","NORAD_CAT_ID":5730,"ELEMENT_SET_NO":999,"REV_AT_EPOCH":66193,"BSTAR":0.00041846369,"MEAN_MOTION_DOT":8.045e-5,"MEAN_MOTION_DDOT":0},{"OBJECT_NAME":"OAO 3 (COPERNICUS)","OBJECT_ID":"1972-065A","EPOCH":"2026-04-23T13:10:20.195040","MEAN_MOTION":14.60029533,"ECCENTRICITY":0.00066045,"INCLINATION":35.0066,"RA_OF_ASC_NODE":41.7235,"ARG_OF_PERICENTER":173.7836,"MEAN_ANOMALY":352.7242,"EPHEMERIS_TYPE":0,"CLASSIFICATION_TYPE":"U","NORAD_CAT_ID":6153,"ELEMENT_SET_NO":999,"REV_AT_EPOCH":85275,"BSTAR":4.7565394e-5,"MEAN_MOTION_DOT":2.11e-6,"MEAN_MOTION_DDOT":0},{"OBJECT_NAME":"ATLAS CENTAUR R/B","OBJECT_ID":"1972-065B","EPOCH":"2026-04-23T11:42:51.695712","MEAN_MOTION":14.7780269,"ECCENTRICITY":0.00331161,"INCLINATION":35.0024,"RA_OF_ASC_NODE":43.1878,"ARG_OF_PERICENTER":26.2507,"MEAN_ANOMALY":333.9864,"EPHEMERIS_TYPE":0,"CLASSIFICATION_TYPE":"U","NORAD_CAT_ID":6155,"ELEMENT_SET_NO":999,"REV_AT_EPOCH":84789,"BSTAR":0.00012123903,"MEAN_MOTION_DOT":8.68e-6,"MEAN_MOTION_DDOT":0},{"OBJECT_NAME":"SL-8 R/B","OBJECT_ID":"1975-112B","EPOCH":"2026-04-22T21:09:21.036672","MEAN_MOTION":14.38224359,"ECCENTRICITY":0.0015324,"INCLINATION":74.0595,"RA_OF_ASC_NODE":297.6186,"ARG_OF_PERICENTER":14.3869,"MEAN_ANOMALY":345.7718,"EPHEMERIS_TYPE":0,"CLASSIFICATION_TYPE":"U","NORAD_CAT_ID":8459,"ELEMENT_SET_NO":999,"REV_AT_EPOCH":63822,"BSTAR":2.938e-5,"MEAN_MOTION_DOT":6.3e-7,"MEAN_MOTION_DDOT":0},{"OBJECT_NAME":"SL-3 R/B","OBJECT_ID":"1977-057B","EPOCH":"2026-04-23T12:07:10.883712","MEAN_MOTION":15.46677366,"ECCENTRICITY":0.00083415,"INCLINATION":97.5825,"RA_OF_ASC_NODE":287.4554,"ARG_OF_PERICENTER":118.5928,"MEAN_ANOMALY":241.6161,"EPHEMERIS_TYPE":0,"CLASSIFICATION_TYPE":"U","NORAD_CAT_ID":10114,"ELEMENT_SET_NO":999,"REV_AT_EPOCH":67525,"BSTAR":0.00020129761,"MEAN_MOTION_DOT":9.967e-5,"MEAN_MOTION_DDOT":0},{"OBJECT_NAME":"SEASAT 1","OBJECT_ID":"1978-064A","EPOCH":"2026-04-23T12:38:20.973696","MEAN_MOTION":14.4619724,"ECCENTRICITY":0.00027897,"INCLINATION":108.0082,"RA_OF_ASC_NODE":219.5733,"ARG_OF_PERICENTER":261.7652,"MEAN_ANOMALY":98.3178,"EPHEMERIS_TYPE":0,"CLASSIFICATION_TYPE":"U","NORAD_CAT_ID":10967,"ELEMENT_SET_NO":999,"REV_AT_EPOCH":51299,"BSTAR":9.1307697e-5,"MEAN_MOTION_DOT":1.89e-6,"MEAN_MOTION_DDOT":0},{"OBJECT_NAME":"SL-14 R/B","OBJECT_ID":"1979-011B","EPOCH":"2026-04-23T05:57:19.310688","MEAN_MOTION":14.91963594,"ECCENTRICITY":0.00143639,"INCLINATION":82.525,"RA_OF_ASC_NODE":54.2812,"ARG_OF_PERICENTER":268.8207,"MEAN_ANOMALY":91.1367,"EPHEMERIS_TYPE":0,"CLASSIFICATION_TYPE":"U","NORAD_CAT_ID":11267,"ELEMENT_SET_NO":999,"REV_AT_EPOCH":53542,"BSTAR":3.8515817e-5,"MEAN_MOTION_DOT":4.16e-6,"MEAN_MOTION_DDOT":0}]
